{
  "links" : {
    "next" : "https://api.nasa.gov/neo/rest/v1/feed?start_date=2005-08-16&end_date=2005-08-16&detailed=true&api_key=t0TVs3DtDT2H8Oy2Zy8m2eVrNsAVKAexjcZXUckd",
    "prev" : "https://api.nasa.gov/neo/rest/v1/feed?start_date=2005-08-14&end_date=2005-08-14&detailed=true&api_key=t0TVs3DtDT2H8Oy2Zy8m2eVrNsAVKAexjcZXUckd",
    "self" : "https://api.nasa.gov/neo/rest/v1/feed?start_date=2005-08-15&end_date=2005-08-15&detailed=true&api_key=t0TVs3DtDT2H8Oy2Zy8m2eVrNsAVKAexjcZXUckd"
  },
  "element_count" : 5,
  "near_earth_objects" : {
    "2005-08-15" : [ {
      "links" : {
        "self" : "https://api.nasa.gov/neo/rest/v1/neo/3647016?api_key=t0TVs3DtDT2H8Oy2Zy8m2eVrNsAVKAexjcZXUckd"
      },
      "neo_reference_id" : "3647016",
      "name" : "(2013 RO5)",
      "nasa_jpl_url" : "http://ssd.jpl.nasa.gov/sbdb.cgi?sstr=3647016",
      "absolute_magnitude_h" : 24.8,
      "estimated_diameter" : {
        "kilometers" : {
          "estimated_diameter_min" : 0.0291443905,
          "estimated_diameter_max" : 0.0651688382
        },
        "meters" : {
          "estimated_diameter_min" : 29.1443904535,
          "estimated_diameter_max" : 65.1688382168
        },
        "miles" : {
          "estimated_diameter_min" : 0.018109479,
          "estimated_diameter_max" : 0.0404940262
        },
        "feet" : {
          "estimated_diameter_min" : 95.6180819754,
          "estimated_diameter_max" : 213.8085311752
        }
      },
      "is_potentially_hazardous_asteroid" : false,
      "close_approach_data" : [ {
        "close_approach_date" : "2005-08-15",
        "epoch_date_close_approach" : 1124089200000,
        "relative_velocity" : {
          "kilometers_per_second" : "20.3220725393",
          "kilometers_per_hour" : "73159.4611415041",
          "miles_per_hour" : "45458.4440631752"
        },
        "miss_distance" : {
          "astronomical" : "0.4138369121",
          "lunar" : "160.9825592041",
          "kilometers" : "61909124",
          "miles" : "38468544"
        },
        "orbiting_body" : "Earth"
      } ],
      "orbital_data" : {
        "orbit_id" : "9",
        "orbit_determination_date" : "2017-04-06 08:44:57",
        "orbit_uncertainty" : "7",
        "minimum_orbit_intersection" : ".0200868",
        "jupiter_tisserand_invariant" : "7.569",
        "epoch_osculation" : "2458000.5",
        "eccentricity" : ".3607328374506857",
        "semi_major_axis" : ".7575471500310063",
        "inclination" : "10.08490043805271",
        "ascending_node_longitude" : "339.6300659359483",
        "orbital_period" : "240.8312999419205",
        "perihelion_distance" : ".484275017097641",
        "perihelion_argument" : "175.9575392318773",
        "aphelion_distance" : "1.030819282964371",
        "perihelion_time" : "2458098.702488035189",
        "mean_anomaly" : "213.2047300280572",
        "mean_motion" : "1.494822309586912",
        "equinox" : "J2000"
      }
    }, {
      "links" : {
        "self" : "https://api.nasa.gov/neo/rest/v1/neo/3596032?api_key=t0TVs3DtDT2H8Oy2Zy8m2eVrNsAVKAexjcZXUckd"
      },
      "neo_reference_id" : "3596032",
      "name" : "(2012 BX13)",
      "nasa_jpl_url" : "http://ssd.jpl.nasa.gov/sbdb.cgi?sstr=3596032",
      "absolute_magnitude_h" : 20.0,
      "estimated_diameter" : {
        "kilometers" : {
          "estimated_diameter_min" : 0.2658,
          "estimated_diameter_max" : 0.5943468684
        },
        "meters" : {
          "estimated_diameter_min" : 265.8,
          "estimated_diameter_max" : 594.3468684194
        },
        "miles" : {
          "estimated_diameter_min" : 0.1651604118,
          "estimated_diameter_max" : 0.369309908
        },
        "feet" : {
          "estimated_diameter_min" : 872.047272,
          "estimated_diameter_max" : 1949.9569797852
        }
      },
      "is_potentially_hazardous_asteroid" : false,
      "close_approach_data" : [ {
        "close_approach_date" : "2005-08-15",
        "epoch_date_close_approach" : 1124089200000,
        "relative_velocity" : {
          "kilometers_per_second" : "34.8767259844",
          "kilometers_per_hour" : "125556.2135439401",
          "miles_per_hour" : "78015.7483545665"
        },
        "miss_distance" : {
          "astronomical" : "0.3958586542",
          "lunar" : "153.9890136719",
          "kilometers" : "59219612",
          "miles" : "36797360"
        },
        "orbiting_body" : "Earth"
      } ],
      "orbital_data" : {
        "orbit_id" : "20",
        "orbit_determination_date" : "2017-04-06 08:51:22",
        "orbit_uncertainty" : "0",
        "minimum_orbit_intersection" : ".261906",
        "jupiter_tisserand_invariant" : "4.266",
        "epoch_osculation" : "2458000.5",
        "eccentricity" : ".6239145301120661",
        "semi_major_axis" : "1.411854724980264",
        "inclination" : "44.52266447272427",
        "ascending_node_longitude" : "116.9584331356417",
        "orbital_period" : "612.7501754378983",
        "perihelion_distance" : ".5309780476577022",
        "perihelion_argument" : "129.3280006665703",
        "aphelion_distance" : "2.292731402302825",
        "perihelion_time" : "2457859.982175740658",
        "mean_anomaly" : "82.55634802097279",
        "mean_motion" : ".5875151316647574",
        "equinox" : "J2000"
      }
    } ]
  }
}